#cP2017  6  7  0  0  0.00000000      96 ORBIT IGS14 HLM  IGS
## 1952 259200.00000000   900.00000000 57911 0.0000000000000
+   32   G01G02G03G04G05G06G07G08G09G10G11G12G13G14G15G16G17
+        G18G19G20G21G22G23G24G25G26G27G28G29G30G31G32  0  0
+          0  0  0  0  0  0  0  0  0  0  0  0  0  0  0  0  0
+          0  0  0  0  0  0  0  0  0  0  0  0  0  0  0  0  0
+          0  0  0  0  0  0  0  0  0  0  0  0  0  0  0  0  0
++         2  2  2  0  2  2  2  2  2  2  2  3  2  2  2  2  2
++         2  2  2  2  2  2  2  3  2  2  3  2  2  2  2  0  0
++         0  0  0  0  0  0  0  0  0  0  0  0  0  0  0  0  0
++         0  0  0  0  0  0  0  0  0  0  0  0  0  0  0  0  0
++         0  0  0  0  0  0  0  0  0  0  0  0  0  0  0  0  0
%c G  cc GPS ccc cccc cccc cccc cccc ccccc ccccc ccccc ccccc
%c cc cc ccc ccc cccc cccc cccc cccc ccccc ccccc ccccc ccccc
%f  1.2500000  1.025000000  0.00000000000  0.000000000000000
%f  0.0000000  0.000000000  0.00000000000  0.000000000000000
%i    0    0    0    0      0      0      0      0         0
%i    0    0    0    0      0      0      0      0         0
/* RAPID ORBIT COMBINATION FROM WEIGHTED AVERAGE OF:        
/* cod emr esa gfz jpl ngs sio usn whu                      
/* REFERENCED TO IGS TIME (IGST) AND TO WEIGHTED MEAN POLE: 
/* PCV:IGS14_1930 OL/AL:FES2004  NONE     Y  ORB:CMB CLK:CMB
*  2017  6  7  0 45  0.00000000
PG01  19208.327729  13794.313495 -12478.611094     55.600335  5  4  7 118       
PG02   1526.389254 -15745.917115  21856.141983    403.880451  9  5  7 113       
PG03  13605.449517  20108.178971  10810.564498    -96.351393  7  7  7  96       
PG04  -6818.178536  13183.010727  22344.453241 999999.999999
PG05  -1431.836360 -25085.380729   8198.756444    -42.595705  9  7  8 108       
PG06  17883.493807  -8246.901534  17852.142119    360.979980  6  7  6 130       
PG07  25938.996944   6712.548536   -499.328597    342.761819  8  4  8 121       
PG08   1202.625993  18092.222715 -19322.993941    -62.289425  5  5  7 127       
PG09  19025.829137   -993.555379  18489.480197    379.309089  6  3  7  89       
PG10 -12936.488604   9043.702225 -21315.587395    -32.744174  4  6  7  93       
PG11  14272.450001  12906.933906 -18854.106993   -693.504421  6  3  6 128       
PG12  -9523.011469 -24098.437706   6142.822432    381.959489  9  7  8  89       
PG13   7082.560866 -20033.246491 -16079.389267    -84.493595 11  7  4 122       
PG14 -18593.241179  18716.138577   2409.890631    -73.463069  9  3  4 115       
PG15  -7015.344252 -15479.734840 -20504.259424   -351.279857  3  8  5 106       
PG16  -1068.065634  24672.539784   9082.357914     34.484821  4  5  3 121       
PG17  21368.096266 -14015.802273  -6578.081460   -176.005957  7  6  4 100       
PG18 -16549.671936  -1571.496085 -20163.736893    618.951159  7  5  7  87       
PG19  19981.858180 -17695.564876    739.282941   -500.749798  7  8  5  98       
PG20 -13349.495917 -22292.116831  -5666.910678    475.152792  8  9  2  88       
PG21 -25975.720291  -1950.055930  -4682.818158   -502.479834  9  4  7 105       
PG22   9906.097946  24543.701785   2091.857497    -14.346322  5  3  5  78       
PG23  12401.854263   9692.317201  21654.343651   -213.131003  7  5  7 108       
PG24 -17187.851045 -14413.052192 -14494.474483    -35.861861  7     7 111       
PG25 -15575.226316 -13379.875000  16811.640868   -400.385232  7  8 12 141       
PG26  -6914.694807  18987.507856  17185.895255   -494.689984  6  4  5 112       
PG27  -9749.394721  21645.624508 -11736.689287    271.157170  5  5  5 135       
PG28  13664.467955  -4561.801148 -21688.964045    618.900803  9  7  6  90       
PG29 -17097.372772  -2570.504543  20143.507116    597.455994  9  6  7 116       
PG30  23402.431608  -2059.539232 -12526.215823    154.737987  9  6  7 122       
PG31 -16504.634817   8933.102175  19016.034562    196.315506  8  6  6 114       
PG32 -20599.527617  15681.304718  -5792.809225   -433.795581  5  4  4  92       
*  2017  6  7  1  0  0.00000000
PG01  17680.781956  13624.658701 -14716.460027     55.600715  5  5  7 118       
PG02   3888.337078 -15338.927298  21824.212186    403.873368  9  5  7 108       
PG03  13718.318371  21216.639294   8249.035846    -96.349244  7  7  7  88       
PG04  -9108.230414  12281.049653  21982.595938 999999.999999
PG05   -809.909336 -24131.964466  10745.376069    -42.594151  9  6  8 105       
PG06  19743.868293  -7700.052287  16043.462299    360.984594  5  6  6 127       
PG07  25806.933686   6903.494915   2331.674552    342.757711  8  5  8 117       
PG08   -313.522081  19602.927557 -17821.735803    -62.290837  5  5  6 129       
PG09  17662.548629    733.908711  19804.669064    379.316375  5  4  7  89       
PG10 -13734.873888   6707.745607 -21685.642030    -32.734074  5  6  6  95       
PG11  12201.347502  13455.554279 -19932.444196   -693.506867  5  3  5 128       
PG12  -9509.264316 -24675.392244   3310.992016    381.958275  9  6  8 102       
PG13   8467.903314 -21029.755260 -13990.301885    -84.494454 11  8  4 124       
PG14 -18834.495679  18581.434350   -456.067243    -73.464630 10  4  3 103       
PG15  -5507.683881 -17191.812447 -19537.598417   -351.280615  4  8  6 110       
PG16  -1527.289677  23534.003698  11672.166115     34.485451  4  5  3 123       
PG17  20838.824554 -13196.483381  -9284.462583   -176.004778  7  6  5 104       
PG18 -17273.061173  -3844.310409 -19275.801928    618.952665  7  5  7  80       
PG19  20071.009324 -17525.065011  -2132.156414   -500.748772  7  7  5 101       
PG20 -13224.691120 -22868.100036  -2939.446141    475.154667  7  9  2  94       
PG21 -26377.923768  -2335.341139  -1908.403988   -502.478368  9  4  7  82       
PG22   9582.935778  24722.671338   -688.554768    -14.357442  5  3  5  97       
PG23  10770.062168  11492.267324  21607.468248   -213.131494  7  5  6  95       
PG24 -15430.108218 -14288.457284 -16452.114710    -35.862241  7     6  88       
PG25 -15997.581059 -15160.246707  14822.115649   -400.391141  8  8 13 142       
PG26  -7713.509260  17079.946212  18780.943642   -494.685105  6  4  4 119       
PG27 -10698.215798  22399.353327  -9190.927564    271.163311  5  5  4 135       
PG28  14258.223199  -2016.706393 -21692.533694    618.903602 10  7  5  57       
PG29 -15462.738066  -4274.335246  21152.103163    597.453267  9  6  7 114       
PG30  24584.149143  -1482.099906 -10124.765043    154.736930  8  6  7 115       
PG31 -18475.618634   8328.278943  17439.816111    196.313310  7  6  7 110       
PG32 -20240.649101  14900.774979  -8486.930311   -433.804301  5  5  4  77       
*  2017  6  7  1 15  0.00000000
PG01  15911.280464  13500.140124 -16705.994849     55.601140  5  5  7 113       
PG02   6248.286603 -15055.500008  21433.069542    403.866184  9  5  7  84       
PG03  13781.239557  22039.942110   5545.814282    -96.347120  7  7  7  73       
PG04 -11393.179811  11526.149779  21251.600182 999999.999999
PG05    -37.083924 -22951.972346  13104.291983    -42.592645  8  5  8  99       
PG06  21412.918380  -7285.923127  13959.308474    360.989214  5  6  6 127       
PG07  25375.629264   7045.570915   5123.692063    342.753584  7  5  7 117       
PG08  -1631.574307  21044.000906 -16011.535693    -62.292769  5  5  6 117       
PG09  16308.676343   2630.444970  20778.551586    379.323641  5  6  6  66       
PG10 -14660.292071   4397.996922 -21681.342108    -32.724086  5  6  6  90       
PG11  10061.409299  14117.329886 -20683.052840   -693.509435  4  3  5 127       
PG12  -9429.761287 -24943.723313    422.732348    381.957516 10  6  9 103       
PG13   9620.773516 -21924.435060 -11662.602014    -84.495947 11  8  4 127       
PG14 -18861.136504  18220.493568  -3314.057938    -73.465781  9  5  3 112       
PG15  -4152.182925 -18871.172034 -18236.293378   -351.281102  4  8  6  93       
PG16  -2131.841696  22149.637043  14055.419915     34.485564  5  4  4 126       
PG17  20156.185745 -12121.579495 -11827.280307   -176.003233  7  7  6 108       
PG18 -18048.396862  -5965.944784 -18041.016058    618.954135  7  5  7 100       
PG19  19944.287469 -17131.195271  -4967.619947   -500.747331  8  7  5 109       
PG20 -12987.286630 -23173.047057   -161.513322    475.155326  7  9  3  93       
PG21 -26484.964282  -2656.964944    898.973672   -502.476374  9  4  8 107       
PG22   9140.899666  24630.493597  -3457.043262    -14.368352  6  3  5  94       
PG23   9243.497224  13355.150076  21196.171441   -213.132124  7  5  5  88       
PG24 -13464.873197 -14227.682567 -18131.058932    -35.862066  7     5  70       
PG25 -16430.564484 -16688.427108  12577.499526   -400.397053  8  8 13 142       
PG26  -8669.929992  15066.015572  20051.787414   -494.680141  5  4  4 114       
PG27 -11419.818205  22969.293763  -6485.370716    271.169390  5  5  5 127       
PG28  14983.326065    469.908888 -21299.974851    618.906538  9  8  5 102       
PG29 -13862.159791  -6135.441246  21796.225347    597.449829  8  6  7 108       
PG30  25519.266554  -1024.819659  -7550.395964    154.736037  6  5  7 120       
PG31 -20284.098239   7867.002990  15569.368218    196.310933  7  6  7  94       
PG32 -19737.844847  13870.018551 -11034.452114   -433.812928  5  5  4  93       
EOF
